{
  "type": "FeatureCollection",
  "features": [
    {
      "type": "Feature",
      "properties": {
        "norad_id": 44204,
        "name": "BEIDOU-3 IGSO-1 (C38)",
        "group": "gnss",
        "lat": -25.6885306460425,
        "lon": 22.415400697026662,
        "alt_km": 35832.27128033151,
        "timestamp": "2025-12-14T11:29:50.303598+00:00",
        "meta_object_name": "BEIDOU-3 IGSO-1 (C38)",
        "meta_object_id": "2019-023A",
        "meta_epoch": "2025-11-19T14:15:02.708640",
        "meta_mean_motion": 1.00252177,
        "meta_eccentricity": 0.0026966,
        "meta_inclination": 58.4003,
        "meta_ra_of_asc_node": 39.8168,
        "meta_arg_of_pericenter": 221.2202,
        "meta_mean_anomaly": 126.9723,
        "meta_ephemeris_type": 0,
        "meta_classification_type": "U",
        "meta_norad_cat_id": 44204,
        "meta_element_set_no": 999,
        "meta_rev_at_epoch": 510,
        "meta_bstar": 0,
        "meta_mean_motion_dot": -2.26e-06,
        "meta_mean_motion_ddot": 0,
        "tle_line1": "1 44204U 19023A   25323.59378135 -.00000226  00000+0  00000+0 0  9994",
        "tle_line2": "2 44204  58.4003  39.8168 0026966 221.2202 126.9723  1.00252177  5102"
      },
      "geometry": {
        "type": "Point",
        "coordinates": [
          22.415400697026662,
          -25.6885306460425
        ]
      }
    },
    {
      "type": "Feature",
      "properties": {
        "norad_id": 44231,
        "name": "BEIDOU-2 G8 (C01)",
        "group": "gnss",
        "lat": -0.919867276301385,
        "lon": 40.423814838423084,
        "alt_km": 35774.30445632679,
        "timestamp": "2025-12-14T11:29:50.303614+00:00",
        "meta_object_name": "BEIDOU-2 G8 (C01)",
        "meta_object_id": "2019-027A",
        "meta_epoch": "2025-12-13T15:50:59.468928",
        "meta_mean_motion": 1.00267749,
        "meta_eccentricity": 0.0008739,
        "meta_inclination": 1.6646,
        "meta_ra_of_asc_node": 74.7146,
        "meta_arg_of_pericenter": 256.676,
        "meta_mean_anomaly": 133.4301,
        "meta_ephemeris_type": 0,
        "meta_classification_type": "U",
        "meta_norad_cat_id": 44231,
        "meta_element_set_no": 999,
        "meta_rev_at_epoch": 2422,
        "meta_bstar": 0,
        "meta_mean_motion_dot": -2.33e-06,
        "meta_mean_motion_ddot": 0,
        "tle_line1": "1 44231U 19027A   25347.66041052 -.00000233  00000+0  00000+0 0  9995",
        "tle_line2": "2 44231   1.6646  74.7146 0008739 256.6760 133.4301  1.00267749 24228"
      },
      "geometry": {
        "type": "Point",
        "coordinates": [
          40.423814838423084,
          -0.919867276301385
        ]
      }
    },
    {
      "type": "Feature",
      "properties": {
        "norad_id": 44299,
        "name": "COSMOS 2534 (758)",
        "group": "gnss",
        "lat": -63.48650005564324,
        "lon": 124.58695437361689,
        "alt_km": 19113.626660544855,
        "timestamp": "2025-12-14T11:29:50.303629+00:00",
        "meta_object_name": "COSMOS 2534 (758)",
        "meta_object_id": "2019-030A",
        "meta_epoch": "2025-12-10T14:34:24.563136",
        "meta_mean_motion": 2.13102261,
        "meta_eccentricity": 0.0008999,
        "meta_inclination": 64.3653,
        "meta_ra_of_asc_node": 198.9649,
        "meta_arg_of_pericenter": 283.4628,
        "meta_mean_anomaly": 263.2195,
        "meta_ephemeris_type": 0,
        "meta_classification_type": "U",
        "meta_norad_cat_id": 44299,
        "meta_element_set_no": 999,
        "meta_rev_at_epoch": 5090,
        "meta_bstar": 0,
        "meta_mean_motion_dot": 4.7e-07,
        "meta_mean_motion_ddot": 0,
        "tle_line1": "1 44299U 19030A   25344.60722874  .00000047  00000+0  00000+0 0  9994",
        "tle_line2": "2 44299  64.3653 198.9649 0008999 283.4628 263.2195  2.13102261 50901"
      },
      "geometry": {
        "type": "Point",
        "coordinates": [
          124.58695437361689,
          -63.48650005564324
        ]
      }
    },
    {
      "type": "Feature",
      "properties": {
        "norad_id": 44337,
        "name": "BEIDOU-3 IGSO-2 (C39)",
        "group": "gnss",
        "lat": -28.07167499632757,
        "lon": 2.2544776306750736,
        "alt_km": 35636.95609444934,
        "timestamp": "2025-12-14T11:29:50.303641+00:00",
        "meta_object_name": "BEIDOU-3 IGSO-2 (C39)",
        "meta_object_id": "2019-035A",
        "meta_epoch": "2025-12-10T21:20:38.716800",
        "meta_mean_motion": 1.00271557,
        "meta_eccentricity": 0.00373373,
        "meta_inclination": 55.2247,
        "meta_ra_of_asc_node": 160.5169,
        "meta_arg_of_pericenter": 202.3364,
        "meta_mean_anomaly": 156.6887,
        "meta_ephemeris_type": 0,
        "meta_classification_type": "U",
        "meta_norad_cat_id": 44337,
        "meta_element_set_no": 999,
        "meta_rev_at_epoch": 2377,
        "meta_bstar": 0,
        "meta_mean_motion_dot": -6.6e-07,
        "meta_mean_motion_ddot": 0,
        "tle_line1": "1 44337U 19035A   25344.88933700 -.00000066  00000+0  00000+0 0  9996",
        "tle_line2": "2 44337  55.2247 160.5169 0037337 202.3364 156.6887  1.00271557 23777"
      },
      "geometry": {
        "type": "Point",
        "coordinates": [
          2.2544776306750736,
          -28.07167499632757
        ]
      }
    },
    {
      "type": "Feature",
      "properties": {
        "norad_id": 44506,
        "name": "GPS BIII-2  (PRN 18)",
        "group": "gnss",
        "lat": -29.43860246602974,
        "lon": -178.88468687756534,
        "alt_km": 20039.930013923884,
        "timestamp": "2025-12-14T11:29:50.303653+00:00",
        "meta_object_name": "GPS BIII-2  (PRN 18)",
        "meta_object_id": "2019-056A",
        "meta_epoch": "2025-12-11T10:12:28.532736",
        "meta_mean_motion": 2.00566237,
        "meta_eccentricity": 0.00577517,
        "meta_inclination": 55.7218,
        "meta_ra_of_asc_node": 338.6041,
        "meta_arg_of_pericenter": 198.4885,
        "meta_mean_anomaly": 332.8185,
        "meta_ephemeris_type": 0,
        "meta_classification_type": "U",
        "meta_norad_cat_id": 44506,
        "meta_element_set_no": 999,
        "meta_rev_at_epoch": 4630,
        "meta_bstar": 0,
        "meta_mean_motion_dot": -8.7e-07,
        "meta_mean_motion_ddot": 0,
        "tle_line1": "1 44506U 19056A   25345.42533024 -.00000087  00000+0  00000+0 0  9996",
        "tle_line2": "2 44506  55.7218 338.6041 0057751 198.4885 332.8185  2.00566237 46306"
      },
      "geometry": {
        "type": "Point",
        "coordinates": [
          -178.88468687756534,
          -29.43860246602974
        ]
      }
    },
    {
      "type": "Feature",
      "properties": {
        "norad_id": 44542,
        "name": "BEIDOU-3 M24 (C46)",
        "group": "gnss",
        "lat": -27.149526191019458,
        "lon": 167.40604429605054,
        "alt_km": 21517.75634719706,
        "timestamp": "2025-12-14T11:29:50.303664+00:00",
        "meta_object_name": "BEIDOU-3 M24 (C46)",
        "meta_object_id": "2019-061A",
        "meta_epoch": "2025-12-11T20:16:59.930112",
        "meta_mean_motion": 1.86229199,
        "meta_eccentricity": 0.00095416,
        "meta_inclination": 54.4002,
        "meta_ra_of_asc_node": 189.0463,
        "meta_arg_of_pericenter": 24.13,
        "meta_mean_anomaly": 335.9744,
        "meta_ephemeris_type": 0,
        "meta_classification_type": "U",
        "meta_norad_cat_id": 44542,
        "meta_element_set_no": 999,
        "meta_rev_at_epoch": 4230,
        "meta_bstar": 0,
        "meta_mean_motion_dot": 7.3e-07,
        "meta_mean_motion_ddot": 0,
        "tle_line1": "1 44542U 19061A   25345.84513808  .00000073  00000+0  00000+0 0  9990",
        "tle_line2": "2 44542  54.4002 189.0463 0009541  24.1300 335.9744  1.86229199 42307"
      },
      "geometry": {
        "type": "Point",
        "coordinates": [
          167.40604429605054,
          -27.149526191019458
        ]
      }
    },
    {
      "type": "Feature",
      "properties": {
        "norad_id": 44543,
        "name": "BEIDOU-3 M23 (C45)",
        "group": "gnss",
        "lat": -43.98663894604297,
        "lon": 52.69167397214386,
        "alt_km": 21547.49663362831,
        "timestamp": "2025-12-14T11:29:50.303675+00:00",
        "meta_object_name": "BEIDOU-3 M23 (C45)",
        "meta_object_id": "2019-061B",
        "meta_epoch": "2025-12-12T05:53:39.748416",
        "meta_mean_motion": 1.86227487,
        "meta_eccentricity": 0.00061471,
        "meta_inclination": 54.3988,
        "meta_ra_of_asc_node": 189.0008,
        "meta_arg_of_pericenter": 23.325,
        "meta_mean_anomaly": 158.0349,
        "meta_ephemeris_type": 0,
        "meta_classification_type": "U",
        "meta_norad_cat_id": 44543,
        "meta_element_set_no": 999,
        "meta_rev_at_epoch": 4231,
        "meta_bstar": 0,
        "meta_mean_motion_dot": 7.9e-07,
        "meta_mean_motion_ddot": 0,
        "tle_line1": "1 44543U 19061B   25346.24559894  .00000079  00000+0  00000+0 0  9997",
        "tle_line2": "2 44543  54.3988 189.0008 0006147  23.3250 158.0349  1.86227487 42313"
      },
      "geometry": {
        "type": "Point",
        "coordinates": [
          52.69167397214386,
          -43.98663894604297
        ]
      }
    }
  ]
}